ORBCOMM-X               
1 21576U 91050C   24119.76048661  .00000769  00000+0  24512-3 0  9999
2 21576  98.3920 187.7764 0003732  19.1315 341.0014 14.42471103722572
ORBCOMM FM01            
1 23545U 95017A   24119.47131283  .00011085  00000+0  14782-2 0  9995
2 23545  69.9693  19.9709 0008656 239.1365 120.8933 14.79772784550947
ORBCOMM FM02            
1 23546U 95017B   24119.83503079  .00008649  00000+0  11673-2 0  9990
2 23546  69.9708  38.4808 0010411 233.3904 126.6288 14.79355467550940
ORBCOMM FM08            
1 25112U 97084A   24119.55359463  .00002749  00000+0  86469-3 0  9993
2 25112  45.0129 193.1947 0008584 302.9921  57.0104 14.42465009381430
ORBCOMM FM10            
1 25113U 97084B   24119.49052718  .00003132  00000+0  98087-3 0  9996
2 25113  45.0137 195.3417 0006872 276.4469  83.5598 14.42380605556574
ORBCOMM FM11            
1 25114U 97084C   24119.57749859  .00002527  00000+0  80165-3 0  9990
2 25114  45.0122 194.9852 0007655 277.6659  82.3322 14.42261939381588
ORBCOMM FM12            
1 25115U 97084D   24119.88336250  .00002321  00000+0  74050-3 0  9990
2 25115  45.0131 193.2180 0006667 278.4378  81.5716 14.42222270381633
ORBCOMM FM09            
1 25116U 97084E   24119.47875484  .00003190  00000+0  10019-2 0  9992
2 25116  45.0136 195.8314 0007888 266.9080  93.0867 14.42187610381547
