<?xml version="1.0" encoding="UTF-8"?>
<ndm xmlns:xsi="http://www.w3.org/2001/XMLSchema-instance" xsi:noNamespaceSchemaLocation="https://sanaregistry.org/r/ndmxml_unqualified/ndmxml-2.0.0-master-2.0.xsd">
<omm id="CCSDS_OMM_VERS" version="2.0">
<header><CREATION_DATE/><ORIGINATOR/></header><body><segment><metadata><OBJECT_NAME>ORBCOMM-X</OBJECT_NAME><OBJECT_ID>1991-050C</OBJECT_ID><CENTER_NAME>EARTH</CENTER_NAME><REF_FRAME>TEME</REF_FRAME><TIME_SYSTEM>UTC</TIME_SYSTEM><MEAN_ELEMENT_THEORY>SGP4</MEAN_ELEMENT_THEORY></metadata><data><meanElements><EPOCH>2024-04-28T18:15:06.043104</EPOCH><MEAN_MOTION>14.42471103</MEAN_MOTION><ECCENTRICITY>.0003732</ECCENTRICITY><INCLINATION>98.3920</INCLINATION><RA_OF_ASC_NODE>187.7764</RA_OF_ASC_NODE><ARG_OF_PERICENTER>19.1315</ARG_OF_PERICENTER><MEAN_ANOMALY>341.0014</MEAN_ANOMALY></meanElements><tleParameters><EPHEMERIS_TYPE>0</EPHEMERIS_TYPE><CLASSIFICATION_TYPE>U</CLASSIFICATION_TYPE><NORAD_CAT_ID>21576</NORAD_CAT_ID><ELEMENT_SET_NO>999</ELEMENT_SET_NO><REV_AT_EPOCH>72257</REV_AT_EPOCH><BSTAR>.24512E-3</BSTAR><MEAN_MOTION_DOT>.769E-5</MEAN_MOTION_DOT><MEAN_MOTION_DDOT>0</MEAN_MOTION_DDOT></tleParameters></data></segment></body></omm>
<omm id="CCSDS_OMM_VERS" version="2.0">
<header><CREATION_DATE/><ORIGINATOR/></header><body><segment><metadata><OBJECT_NAME>ORBCOMM FM01</OBJECT_NAME><OBJECT_ID>1995-017A</OBJECT_ID><CENTER_NAME>EARTH</CENTER_NAME><REF_FRAME>TEME</REF_FRAME><TIME_SYSTEM>UTC</TIME_SYSTEM><MEAN_ELEMENT_THEORY>SGP4</MEAN_ELEMENT_THEORY></metadata><data><meanElements><EPOCH>2024-04-28T11:18:41.428512</EPOCH><MEAN_MOTION>14.79772784</MEAN_MOTION><ECCENTRICITY>.0008656</ECCENTRICITY><INCLINATION>69.9693</INCLINATION><RA_OF_ASC_NODE>19.9709</RA_OF_ASC_NODE><ARG_OF_PERICENTER>239.1365</ARG_OF_PERICENTER><MEAN_ANOMALY>120.8933</MEAN_ANOMALY></meanElements><tleParameters><EPHEMERIS_TYPE>0</EPHEMERIS_TYPE><CLASSIFICATION_TYPE>U</CLASSIFICATION_TYPE><NORAD_CAT_ID>23545</NORAD_CAT_ID><ELEMENT_SET_NO>999</ELEMENT_SET_NO><REV_AT_EPOCH>55094</REV_AT_EPOCH><BSTAR>.14782E-2</BSTAR><MEAN_MOTION_DOT>.11085E-3</MEAN_MOTION_DOT><MEAN_MOTION_DDOT>0</MEAN_MOTION_DDOT></tleParameters></data></segment></body></omm>
<omm id="CCSDS_OMM_VERS" version="2.0">
<header><CREATION_DATE/><ORIGINATOR/></header><body><segment><metadata><OBJECT_NAME>ORBCOMM FM02</OBJECT_NAME><OBJECT_ID>1995-017B</OBJECT_ID><CENTER_NAME>EARTH</CENTER_NAME><REF_FRAME>TEME</REF_FRAME><TIME_SYSTEM>UTC</TIME_SYSTEM><MEAN_ELEMENT_THEORY>SGP4</MEAN_ELEMENT_THEORY></metadata><data><meanElements><EPOCH>2024-04-28T20:02:26.660256</EPOCH><MEAN_MOTION>14.79355467</MEAN_MOTION><ECCENTRICITY>.0010411</ECCENTRICITY><INCLINATION>69.9708</INCLINATION><RA_OF_ASC_NODE>38.4808</RA_OF_ASC_NODE><ARG_OF_PERICENTER>233.3904</ARG_OF_PERICENTER><MEAN_ANOMALY>126.6288</MEAN_ANOMALY></meanElements><tleParameters><EPHEMERIS_TYPE>0</EPHEMERIS_TYPE><CLASSIFICATION_TYPE>U</CLASSIFICATION_TYPE><NORAD_CAT_ID>23546</NORAD_CAT_ID><ELEMENT_SET_NO>999</ELEMENT_SET_NO><REV_AT_EPOCH>55094</REV_AT_EPOCH><BSTAR>.11673E-2</BSTAR><MEAN_MOTION_DOT>.8649E-4</MEAN_MOTION_DOT><MEAN_MOTION_DDOT>0</MEAN_MOTION_DDOT></tleParameters></data></segment></body></omm>
<omm id="CCSDS_OMM_VERS" version="2.0">
<header><CREATION_DATE/><ORIGINATOR/></header><body><segment><metadata><OBJECT_NAME>ORBCOMM FM08</OBJECT_NAME><OBJECT_ID>1997-084A</OBJECT_ID><CENTER_NAME>EARTH</CENTER_NAME><REF_FRAME>TEME</REF_FRAME><TIME_SYSTEM>UTC</TIME_SYSTEM><MEAN_ELEMENT_THEORY>SGP4</MEAN_ELEMENT_THEORY></metadata><data><meanElements><EPOCH>2024-04-28T13:17:10.576032</EPOCH><MEAN_MOTION>14.42465009</MEAN_MOTION><ECCENTRICITY>.0008584</ECCENTRICITY><INCLINATION>45.0129</INCLINATION><RA_OF_ASC_NODE>193.1947</RA_OF_ASC_NODE><ARG_OF_PERICENTER>302.9921</ARG_OF_PERICENTER><MEAN_ANOMALY>57.0104</MEAN_ANOMALY></meanElements><tleParameters><EPHEMERIS_TYPE>0</EPHEMERIS_TYPE><CLASSIFICATION_TYPE>U</CLASSIFICATION_TYPE><NORAD_CAT_ID>25112</NORAD_CAT_ID><ELEMENT_SET_NO>999</ELEMENT_SET_NO><REV_AT_EPOCH>38143</REV_AT_EPOCH><BSTAR>.86469E-3</BSTAR><MEAN_MOTION_DOT>.2749E-4</MEAN_MOTION_DOT><MEAN_MOTION_DDOT>0</MEAN_MOTION_DDOT></tleParameters></data></segment></body></omm>
<omm id="CCSDS_OMM_VERS" version="2.0">
<header><CREATION_DATE/><ORIGINATOR/></header><body><segment><metadata><OBJECT_NAME>ORBCOMM FM10</OBJECT_NAME><OBJECT_ID>1997-084B</OBJECT_ID><CENTER_NAME>EARTH</CENTER_NAME><REF_FRAME>TEME</REF_FRAME><TIME_SYSTEM>UTC</TIME_SYSTEM><MEAN_ELEMENT_THEORY>SGP4</MEAN_ELEMENT_THEORY></metadata><data><meanElements><EPOCH>2024-04-28T11:46:21.548352</EPOCH><MEAN_MOTION>14.42380605</MEAN_MOTION><ECCENTRICITY>.0006872</ECCENTRICITY><INCLINATION>45.0137</INCLINATION><RA_OF_ASC_NODE>195.3417</RA_OF_ASC_NODE><ARG_OF_PERICENTER>276.4469</ARG_OF_PERICENTER><MEAN_ANOMALY>83.5598</MEAN_ANOMALY></meanElements><tleParameters><EPHEMERIS_TYPE>0</EPHEMERIS_TYPE><CLASSIFICATION_TYPE>U</CLASSIFICATION_TYPE><NORAD_CAT_ID>25113</NORAD_CAT_ID><ELEMENT_SET_NO>999</ELEMENT_SET_NO><REV_AT_EPOCH>55657</REV_AT_EPOCH><BSTAR>.98087E-3</BSTAR><MEAN_MOTION_DOT>.3132E-4</MEAN_MOTION_DOT><MEAN_MOTION_DDOT>0</MEAN_MOTION_DDOT></tleParameters></data></segment></body></omm>
<omm id="CCSDS_OMM_VERS" version="2.0">
<header><CREATION_DATE/><ORIGINATOR/></header><body><segment><metadata><OBJECT_NAME>ORBCOMM FM11</OBJECT_NAME><OBJECT_ID>1997-084C</OBJECT_ID><CENTER_NAME>EARTH</CENTER_NAME><REF_FRAME>TEME</REF_FRAME><TIME_SYSTEM>UTC</TIME_SYSTEM><MEAN_ELEMENT_THEORY>SGP4</MEAN_ELEMENT_THEORY></metadata><data><meanElements><EPOCH>2024-04-28T13:51:35.878176</EPOCH><MEAN_MOTION>14.42261939</MEAN_MOTION><ECCENTRICITY>.0007655</ECCENTRICITY><INCLINATION>45.0122</INCLINATION><RA_OF_ASC_NODE>194.9852</RA_OF_ASC_NODE><ARG_OF_PERICENTER>277.6659</ARG_OF_PERICENTER><MEAN_ANOMALY>82.3322</MEAN_ANOMALY></meanElements><tleParameters><EPHEMERIS_TYPE>0</EPHEMERIS_TYPE><CLASSIFICATION_TYPE>U</CLASSIFICATION_TYPE><NORAD_CAT_ID>25114</NORAD_CAT_ID><ELEMENT_SET_NO>999</ELEMENT_SET_NO><REV_AT_EPOCH>38158</REV_AT_EPOCH><BSTAR>.80165E-3</BSTAR><MEAN_MOTION_DOT>.2527E-4</MEAN_MOTION_DOT><MEAN_MOTION_DDOT>0</MEAN_MOTION_DDOT></tleParameters></data></segment></body></omm>
<omm id="CCSDS_OMM_VERS" version="2.0">
<header><CREATION_DATE/><ORIGINATOR/></header><body><segment><metadata><OBJECT_NAME>ORBCOMM FM12</OBJECT_NAME><OBJECT_ID>1997-084D</OBJECT_ID><CENTER_NAME>EARTH</CENTER_NAME><REF_FRAME>TEME</REF_FRAME><TIME_SYSTEM>UTC</TIME_SYSTEM><MEAN_ELEMENT_THEORY>SGP4</MEAN_ELEMENT_THEORY></metadata><data><meanElements><EPOCH>2024-04-28T21:12:02.520000</EPOCH><MEAN_MOTION>14.42222270</MEAN_MOTION><ECCENTRICITY>.0006667</ECCENTRICITY><INCLINATION>45.0131</INCLINATION><RA_OF_ASC_NODE>193.2180</RA_OF_ASC_NODE><ARG_OF_PERICENTER>278.4378</ARG_OF_PERICENTER><MEAN_ANOMALY>81.5716</MEAN_ANOMALY></meanElements><tleParameters><EPHEMERIS_TYPE>0</EPHEMERIS_TYPE><CLASSIFICATION_TYPE>U</CLASSIFICATION_TYPE><NORAD_CAT_ID>25115</NORAD_CAT_ID><ELEMENT_SET_NO>999</ELEMENT_SET_NO><REV_AT_EPOCH>38163</REV_AT_EPOCH><BSTAR>.7405E-3</BSTAR><MEAN_MOTION_DOT>.2321E-4</MEAN_MOTION_DOT><MEAN_MOTION_DDOT>0</MEAN_MOTION_DDOT></tleParameters></data></segment></body></omm>
<omm id="CCSDS_OMM_VERS" version="2.0">
<header><CREATION_DATE/><ORIGINATOR/></header><body><segment><metadata><OBJECT_NAME>ORBCOMM FM09</OBJECT_NAME><OBJECT_ID>1997-084E</OBJECT_ID><CENTER_NAME>EARTH</CENTER_NAME><REF_FRAME>TEME</REF_FRAME><TIME_SYSTEM>UTC</TIME_SYSTEM><MEAN_ELEMENT_THEORY>SGP4</MEAN_ELEMENT_THEORY></metadata><data><meanElements><EPOCH>2024-04-28T11:29:24.418176</EPOCH><MEAN_MOTION>14.42187610</MEAN_MOTION><ECCENTRICITY>.0007888</ECCENTRICITY><INCLINATION>45.0136</INCLINATION><RA_OF_ASC_NODE>195.8314</RA_OF_ASC_NODE><ARG_OF_PERICENTER>266.9080</ARG_OF_PERICENTER><MEAN_ANOMALY>93.0867</MEAN_ANOMALY></meanElements><tleParameters><EPHEMERIS_TYPE>0</EPHEMERIS_TYPE><CLASSIFICATION_TYPE>U</CLASSIFICATION_TYPE><NORAD_CAT_ID>25116</NORAD_CAT_ID><ELEMENT_SET_NO>999</ELEMENT_SET_NO><REV_AT_EPOCH>38154</REV_AT_EPOCH><BSTAR>.10019E-2</BSTAR><MEAN_MOTION_DOT>.319E-4</MEAN_MOTION_DOT><MEAN_MOTION_DDOT>0</MEAN_MOTION_DDOT></tleParameters></data></segment></body></omm>

</ndm>
